SatCatId,ObjectName,LaunchYear,OrbitalPeriod,LaunchMass,StatusCode,Inclination,Status,UcsData,OrbitClassEstimated,LaunchSiteCountry,Owner,UseType,Purpose,LaunchVehicleClass,TLE1,TLE2,MeanMotion,Eccentricity,OrbitClass
64081,STARLINK-34180,2025,91.78,-1.0,+,43.0,Active,0,LEO,USA,USA,Unknown,Unknown,Unknown,1 64081U 25107T   25157.79904110 -.00603445  00000+0 -54415-2 0  9999,2 64081  42.9997 323.3714 0003147 272.5742  87.4765 15.69044079  3889,15.69044079,0.0003147,LEO
64082,STARLINK-34171,2025,91.78,-1.0,+,43.0,Active,0,LEO,USA,USA,Unknown,Unknown,Unknown,1 64082U 25107U   25157.79871805 -.00620622  00000+0 -56196-2 0  9998,2 64082  43.0002 323.3695 0001542 282.1109  77.9585 15.69007652  3888,15.69007652,0.0001542,LEO
64083,STARLINK-34126,2025,91.75,-1.0,+,43.0,Active,0,LEO,USA,USA,Unknown,Unknown,Unknown,1 64083U 25107V   25157.73403566  .00220290  00000+0  17668-2 0  9994,2 64083  43.0004 323.7413 0004111 160.8309 199.2713 15.69556350  2785,15.6955635,0.0004111,LEO
64084,STARLINK-34157,2025,91.98,-1.0,+,43.0,Active,0,LEO,USA,USA,Unknown,Unknown,Unknown,1 64084U 25107W   25158.81721092 -.00637258  00000+0 -66551-2 0  9995,2 64084  42.9991 317.2438 0001153 247.4709 112.6035 15.65578795  4010,15.65578795,0.0001153,LEO
64085,STARLINK-34140,2025,91.54,-1.0,+,43.0,Active,0,LEO,USA,USA,Unknown,Unknown,Unknown,1 64085U 25107X   25160.86474232 -.00640011  00000+0 -88011-2 0  9991,2 64085  42.9992 305.0828 0001234 286.3618  73.7110 15.58571197  4349,15.58571197,0.0001234,LEO
64086,STARLINK-34132,2025,91.58,-1.0,+,43.0,Active,0,LEO,USA,USA,Unknown,Unknown,Unknown,1 64086U 25107Y   25156.84393582  .00273011  00000+0  19270-2 0  9994,2 64086  43.0009 329.1094 0005826  16.5076 343.5981 15.72431356  3706,15.72431356,0.0005826,LEO
64087,OBJECT A,2025,95.14,-1.0,+,97.51,Active,0,LEO,PRC,China,Unknown,Unknown,Unknown,1 64087U 25108A   25161.57832235  .00002493  00000+0  14263-3 0  9997,2 64087  97.5133 237.1135 0015596 215.5614 144.4579 15.13489077  3098,15.13489077,0.0015596,LEO
64088,OBJECT B,2025,95.17,-1.0,+,97.51,Active,0,LEO,PRC,China,Unknown,Unknown,Unknown,1 64088U 25108B   25161.58375234  .00005179  00000+0  29516-3 0  9991,2 64088  97.5097 237.0974 0014831 209.1442 150.8963 15.13141725  3056,15.13141725,0.0014831,LEO
64089,OBJECT C,2025,95.18,-1.0,+,97.51,Active,0,LEO,PRC,China,Unknown,Unknown,Unknown,1 64089U 25108C   25161.58565633  .00003605  00000+0  20761-3 0  9991,2 64089  97.5066 237.0833 0015976 209.5968 150.4360 15.12952498  3058,15.12952498,0.0015976,LEO
64090,OBJECT D,2025,95.16,-1.0,+,97.51,Active,0,LEO,PRC,China,Unknown,Unknown,Unknown,1 64090U 25108D   25161.58210438  .00003046  00000+0  17412-3 0  9991,2 64090  97.5066 237.0918 0014710 214.2066 145.8219 15.13358015  3058,15.13358015,0.001471,LEO
64091,OBJECT E,2025,95.16,-1.0,+,97.51,Active,0,LEO,PRC,China,Unknown,Unknown,Unknown,1 64091U 25108E   25161.58304073  .00006235  00000+0  35364-3 0  9990,2 64091  97.5060 237.0888 0014873 209.3967 150.6429 15.13230355  3057,15.13230355,0.0014873,LEO
64092,OBJECT F,2025,95.15,-1.0,+,97.51,Active,0,LEO,PRC,China,Unknown,Unknown,Unknown,1 64092U 25108F   25161.58103737  .00008250  00000+0  46426-3 0  9995,2 64092  97.5054 237.0901 0014901 212.0371 147.9956 15.13410275  3054,15.13410275,0.0014901,LEO
64095,COSMOS 2588,2025,94.07,-1.0,+,72.97,Active,0,LEO,Russia,Russia/USSR,Unknown,Unknown,Unknown,1 64095U 25109A   25161.57917706  .00006249  00000+0  21146-3 0  9995,2 64095  72.9724 330.3619 0011662 216.6141 143.4259 15.30833892  2797,15.30833892,0.0011662,LEO
64096,STARLINK-34178,2025,91.72,-1.0,+,53.16,Active,0,LEO,USA,USA,Unknown,Unknown,Unknown,1 64096U 25110A   25158.27298382 -.00758268  00000+0 -67610-2 0  9995,2 64096  53.1589 237.5114 0003483  28.1974 331.9232 15.69990448  3551,15.69990448,0.0003483,LEO
64097,STARLINK-34174,2025,91.67,-1.0,+,53.16,Active,0,LEO,USA,USA,Unknown,Unknown,Unknown,1 64097U 25110B   25158.08164378 -.00726318  00000+0 -62331-2 0  9998,2 64097  53.1589 238.4504 0001156 179.5496 180.5524 15.70829030  3529,15.7082903,0.0001156,LEO
64098,STARLINK-34146,2025,91.72,-1.0,+,53.16,Active,0,LEO,USA,USA,Unknown,Unknown,Unknown,1 64098U 25110C   25158.27229586 -.00687572  00000+0 -60560-2 0  9993,2 64098  53.1585 237.5063 0003998  26.7776 333.3448 15.70073264  3552,15.70073264,0.0003998,LEO
64099,STARLINK-34074,2025,91.68,-1.0,+,53.16,Active,0,LEO,USA,USA,Unknown,Unknown,Unknown,1 64099U 25110D   25158.27164349 -.01975494  00000+0 -17688-1 0  9995,2 64099  53.1588 237.5022 0001519 346.1539  13.9438 15.70718895  3550,15.70718895,0.0001519,LEO
64100,STARLINK-34082,2025,91.64,-1.0,+,53.16,Active,0,LEO,USA,USA,Unknown,Unknown,Unknown,1 64100U 25110E   25157.95338147 -.00507031  00000+0 -41318-2 0  9996,2 64100  53.1585 239.0718 0001748  41.5285 318.5866 15.71423249  3508,15.71423249,0.0001748,LEO
64101,STARLINK-34072,2025,91.68,-1.0,+,53.16,Active,0,LEO,USA,USA,Unknown,Unknown,Unknown,1 64101U 25110F   25158.14393436 -.00491631  00000+0 -41379-2 0  9996,2 64101  53.1588 238.1256 0001840 188.6279 171.4708 15.70612943  3532,15.70612943,0.000184,LEO
64102,STARLINK-34104,2025,91.72,-1.0,+,53.16,Active,0,LEO,USA,USA,Unknown,Unknown,Unknown,1 64102U 25110G   25158.27094419 -.00705011  00000+0 -62294-2 0  9999,2 64102  53.1587 237.4967 0003517  36.3895 323.7362 15.70052707  3555,15.70052707,0.0003517,LEO
64103,STARLINK-34179,2025,91.63,-1.0,+,53.16,Active,0,LEO,USA,USA,Unknown,Unknown,Unknown,1 64103U 25110H   25157.95237711 -.00263983  00000+0 -20786-2 0  9995,2 64103  53.1590 239.0651 0004106  51.4098 308.7288 15.71515614  3503,15.71515614,0.0004106,LEO
64104,STARLINK-34176,2025,91.67,-1.0,+,53.16,Active,0,LEO,USA,USA,Unknown,Unknown,Unknown,1 64104U 25110J   25158.07927005 -.00713815  00000+0 -61155-2 0  9991,2 64104  53.1587 238.4335 0001874 180.4311 179.6706 15.70827251  3526,15.70827251,0.0001874,LEO
64105,STARLINK-33949,2025,91.64,-1.0,+,53.16,Active,0,LEO,USA,USA,Unknown,Unknown,Unknown,1 64105U 25110K   25157.95169204 -.00628406  00000+0 -52070-2 0  9994,2 64105  53.1584 239.0601 0002703  65.4777 294.6523 15.71366125  3509,15.71366125,0.0002703,LEO
64106,STARLINK-33970,2025,91.63,-1.0,+,53.16,Active,0,LEO,USA,USA,Unknown,Unknown,Unknown,1 64106U 25110L   25157.95135675 -.00263168  00000+0 -20713-2 0  9999,2 64106  53.1605 239.0596 0003546  38.3544 321.7726 15.71527660  3504,15.7152766,0.0003546,LEO
64107,STARLINK-33912,2025,91.64,-1.0,+,53.16,Active,0,LEO,USA,USA,Unknown,Unknown,Unknown,1 64107U 25110M   25157.95100127 -.00603688  00000+0 -49789-2 0  9993,2 64107  53.1587 239.0554 0001098 319.0517  41.0419 15.71418501  3501,15.71418501,0.0001098,LEO
64108,STARLINK-34156,2025,91.67,-1.0,+,53.16,Active,0,LEO,USA,USA,Unknown,Unknown,Unknown,1 64108U 25110N   25158.07792310 -.00715392  00000+0 -61193-2 0  9998,2 64108  53.1588 238.4236 0001375 164.8923 195.2137 15.70873393  3522,15.70873393,0.0001375,LEO
64109,STARLINK-34124,2025,91.7,-1.0,+,53.16,Active,0,LEO,USA,USA,Unknown,Unknown,Unknown,1 64109U 25110P   25158.20490215 -.00605153  00000+0 -52132-2 0  9999,2 64109  53.1590 237.7945 0003688  10.8930 349.2168 15.70369041  3448,15.70369041,0.0003688,LEO
64110,STARLINK-34145,2025,91.67,-1.0,+,53.16,Active,0,LEO,USA,USA,Unknown,Unknown,Unknown,1 64110U 25110Q   25158.07724018 -.00719514  00000+0 -61610-2 0  9995,2 64110  53.1590 238.4202 0001963 179.9136 180.1883 15.70855616  3526,15.70855616,0.0001963,LEO
64111,STARLINK-34148,2025,92.12,-1.0,+,53.16,Active,0,LEO,USA,USA,Unknown,Unknown,Unknown,1 64111U 25110R   25158.20614799  .05107361  00000+0  43994-1 0  9993,2 64111  53.1584 237.7989 0051300 160.0446 200.2591 15.63204794  3548,15.63204794,0.00513,LEO
64112,STARLINK-34136,2025,91.64,-1.0,+,53.16,Active,0,LEO,USA,USA,Unknown,Unknown,Unknown,1 64112U 25110S   25157.94932258 -.00623228  00000+0 -51583-2 0  9993,2 64112  53.1591 239.0433 0003042  69.7788 290.3558 15.71374866  3405,15.71374866,0.0003042,LEO
64113,STARLINK-33839,2025,91.67,-1.0,+,53.16,Active,0,LEO,USA,USA,Unknown,Unknown,Unknown,1 64113U 25110T   25158.07622257 -.00723176  00000+0 -61962-2 0  9999,2 64113  53.1601 238.4117 0001644 192.2937 167.8041 15.70854118  3423,15.70854118,0.0001644,LEO
64114,STARLINK-34064,2025,91.69,-1.0,+,53.16,Active,0,LEO,USA,USA,Unknown,Unknown,Unknown,1 64114U 25110U   25158.13954570 -.00764561  00000+0 -66600-2 0  9990,2 64114  53.1592 238.0964 0001068  16.5271 343.5782 15.70586037  3537,15.70586037,0.0001068,LEO
64115,STARLINK-34067,2025,91.67,-1.0,+,53.16,Active,0,LEO,USA,USA,Unknown,Unknown,Unknown,1 64115U 25110V   25158.07555167 -.00704056  00000+0 -60095-2 0  9998,2 64115  53.1594 238.4079 0001288 167.1388 192.9663 15.70892068  3524,15.70892068,0.0001288,LEO
64116,STARLINK-34080,2025,91.67,-1.0,+,53.16,Active,0,LEO,USA,USA,Unknown,Unknown,Unknown,1 64116U 25110W   25158.07520516 -.00774553  00000+0 -66778-2 0  9992,2 64116  53.1592 238.4055 0000998 182.8312 177.2701 15.70859883  3421,15.70859883,9.98e-05,LEO
64117,STARLINK-34122,2025,91.67,-1.0,+,53.16,Active,0,LEO,USA,USA,Unknown,Unknown,Unknown,1 64117U 25110X   25158.07486815 -.00714012  00000+0 -61069-2 0  9998,2 64117  53.1588 238.4032 0001324 144.1300 215.9808 15.70872132  3525,15.70872132,0.0001324,LEO
64118,STARLINK-33964,2025,91.67,-1.0,+,53.16,Active,0,LEO,USA,USA,Unknown,Unknown,Unknown,1 64118U 25110Y   25158.07453481 -.00711811  00000+0 -60811-2 0  9990,2 64118  53.1586 238.4006 0001084 162.7163 197.3892 15.70894745  3521,15.70894745,0.0001084,LEO
64119,STARLINK-34160,2025,91.69,-1.0,+,53.16,Active,0,LEO,USA,USA,Unknown,Unknown,Unknown,1 64119U 25110Z   25158.13784516 -.00773916  00000+0 -67601-2 0  9992,2 64119  53.1593 238.0844 0002966 343.2178  16.8741 15.70530298  3537,15.70530298,0.0002966,LEO
64120,STARLINK-34151,2025,91.48,-1.0,+,53.16,Active,0,LEO,USA,USA,Unknown,Unknown,Unknown,1 64120U 25110AA  25161.01288395 -.00581387  00000+0 -80061-2 0  9993,2 64120  53.1587 224.0261 0001476 143.4280 216.6834 15.58568484  3985,15.58568484,0.0001476,LEO
